#dP2017  9  2  0  0  0.00000000     288   u+U IGS14 FIT  GFZ                    
## 1964 518400.00000000   300.00000000 57998 0.0000000000000                    
+   86   C01C02C03C04C05C06C07C08C09C10C11C12C13C14E01E02E03                    
+        E04E05E07E08E09E11E12E14E18E19E22E24E26E30G01G02G03                    
+        G04G05G06G07G08G09G10G11G12G13G14G15G16G17G18G19G20                    
+        G21G22G23G24G25G26G27G28G29G30G31G32J01R01R02R03R04                    
+        R05R06R07R08R09R10R11R13R15R16R17R18R19R20R21R22R23                    
+        R24 00 00 00 00 00 00 00 00 00 00 00 00 00 00 00 00                    
++        10 10  0 10 10  9  8 10  9  8  7  8 10  8  5  5  7                    
++         5  5  7  5  5 10  7  5  8  6  5  6  7  7  6  5  7                    
++         5  7  6  5  5  5  7  6  5  7  9  7  5  6  6  6  6                    
++         9  5  6  5  5  6  5  5  9  5  5  5 10  6  6  5  6                    
++         8  6  5  5 10  7  5  6  6 10  8  6  8  7  7  7  5                    
++         8  0  0  0  0  0  0  0  0  0  0  0  0  0  0  0  0                    
%c M  cc GPS ccc cccc cccc cccc cccc ccccc ccccc ccccc ccccc                    
%c cc cc ccc ccc cccc cccc cccc cccc ccccc ccccc ccccc ccccc                    
%f  1.2500000  1.025000000  0.00000000000  0.000000000000000                    
%f  0.0000000  0.000000000  0.00000000000  0.000000000000000                    
%i    0    0    0    0      0      0      0      0         0                    
%i    0    0    0    0      0      0      0      0         0                    
/* PCV:IGS14_1958 OL/AL:FES2004  NONE     YN CLK:CoN ORB:CoN                    
/*     GeoForschungsZentrum Potsdam                                             
/*                                                                              
/*                                                                              
*  2017  9  2 14 40  0.00000000                                                 
PC01 -32303.286992  27120.127950   -434.627121   -305.936829                    
PC02   4367.660675  41920.105499   -570.002694     81.663256                    
PC03 -14704.434669  39479.519181   -990.067606   -234.320068                    
PC04 -39625.188106  14467.044837   -468.992891     98.307578                    
PC05  21928.965620  35991.562912   -654.275879    305.012562                    
PC06 -21385.885864  23658.433927  27659.401316     -4.301483                    
PC07 -17678.839024  38043.775642   6213.005108     98.697581                    
PC08  -6636.869260  24770.031968 -33358.909625   -579.764101                    
PC09  -4497.184586  24866.118417  33862.133786   -900.154132                    
PC10  -7643.526884  41007.534353  -7209.267262    133.450770                    
PC11   9656.204696  19150.560662 -17761.820766    516.668215                    
PC12 -10964.899917  11459.677907 -22929.155174    173.593176                    
PC13   6552.142088  33601.182305 -24455.668250    705.565058                    
PC14  -2014.297020  18412.803345  20907.150237    853.560367                    
PE01  11993.267280 -26588.592510  -4988.271594   -151.640475                    
PE02 -11994.496489  26602.246498   4985.256850     -8.070042                    
PE03 -16084.724102  16694.682414  18417.549341     65.970472                    
PE04  -5833.107953 -16244.409433 -24038.354452    128.731300                    
PE05 -28603.086073   7352.560900   1985.027645    427.909303                    
PE07  24361.862543   6289.904269  15600.614744    176.798621                    
PE08   5870.848706  16077.759585  24158.076983   6747.662471                    
PE09 -24366.207930  -5973.213620 -15706.231771   7027.998294                    
PE11 -22863.345036 -16966.191263  -8086.970009   1801.226615                    
PE12 -12932.026877 -24553.724977  10278.462717   2302.895412                    
PE14  27371.040823   6760.960242   3177.581863   6723.027987                    
PE18 -23426.392057   5732.542274 -16254.672913   6831.526715                    
PE19  17770.502287 -16177.998922 -17279.377597     13.738058                    
PE22  -4249.548520  18486.659898 -22734.534927   6577.008956                    
PE24 -13303.154072 -10267.209200  24364.554097   5773.679739                    
PE26  19648.076163   -779.182069  22116.124443   6886.740120                    
PE30    937.339241  26120.808284 -13898.531141   6520.599226                    
PG01  14741.288516  -2825.229271  21786.898751     55.508301                    
PG02 -14577.820698 -18845.895932 -11536.795605    339.762655                    
PG03  21707.620353 -11753.091430   9736.047074    -72.211124                    
PG04  18701.213402  13332.689362 -13959.511948     19.538329                    
PG05 -15438.363034  -5780.226203 -20951.075867    -30.897625                    
PG06  -6450.179137 -25756.283563    392.252672    394.000612                    
PG07   8178.527581 -17998.080837 -17323.860296    307.830967                    
PG08  25964.909534   5557.542789   1877.803491    -72.088521                    
PG09  15689.802670  -9845.980253 -19064.784176    436.008772                    
PG10  -6041.631462  20891.338799  15188.398795     54.183413                    
PG11  18952.791073   1344.615454  17951.792565   -713.107815                    
PG12 -21623.360392   7258.994052  13279.346091    374.056028                    
PG13 -23209.339738 -12324.491503  -3847.559720    -90.716681                    
PG14  11289.790849  16986.861396  17382.916787    -82.574271                    
PG15 -26303.424384  -1855.539914   4403.001824   -355.387208                    
PG16  13392.370666   7512.417509 -21857.225464     36.936680                    
PG17  -1629.610566 -15817.946202  21663.299747   -159.674320                    
PG18 -13405.320719  21969.367086   6737.458857    628.629251                    
PG19 -10212.050938 -16631.152887  17620.444384   -488.177479                    
PG20 -20893.263263   8502.855863 -14157.443571    485.305701                    
PG21  -3989.068420  21743.228451 -13873.263362   -482.489172                    
PG22  20761.004272  -4437.483190  16227.629566   -108.569572                    
PG23  23403.583803  -3017.038274 -12349.518672   -216.952543                    
PG24 -15966.457007     54.273369  21167.178844    -39.366901                    
PG25 -20054.121026  16994.130752   2734.820719   -449.448802                    
PG26   5006.628892  15711.670967 -20804.848404   -436.793110                    
PG27  21608.608764  12509.145335  -9433.439571    319.398791                    
PG28  10446.175838 -20539.950539  13839.222871    642.491799                    
PG29 -18482.734300   6387.103913 -17977.374771    567.669456                    
PG30   1082.506323 -25147.535612  -8233.173066    142.675099                    
PG31   7222.780254  25232.894751  -2198.024048    177.891299                    
PG32   4954.384470  16247.928786  20458.759246   -493.584689                    
PJ01 -26876.045851  32587.251249   4355.350934    -39.101020                    
PR01  23404.748361  -4178.224150   9226.021985     14.942834                    
PR02  19925.931236 -12393.773309 -10018.074826    268.284719                    
PR03   4274.638866 -12621.236299 -21718.042061    109.691432                    
PR04 -14211.307885  -5161.818547 -20522.038971    229.224637                    
PR05 -23747.679503   5060.438366  -7835.123473   -157.488336                    
PR06 -19106.467223  12949.672800  10819.125984    117.024998                    
PR07  -3803.660048  12536.853038  21915.466690    -15.322834                    
PR08  13678.744016   5551.864249  20854.367259    -26.741324                    
PR09 -10265.800804  19032.137495  13604.188005     36.796016                    
PR10  -2527.916172  25024.997880  -4535.433651      9.721918                    
PR11   6356.290005  15581.810419 -19170.394096     -9.188776                    
PR13   9232.386118 -20321.164721 -12346.852485     -2.288748                    
PR15  -4835.581748 -17974.691698  17499.170444     -0.627772                    
PR16 -11321.185579   2525.641192  22691.400474     73.309199                    
PR17  -6744.709334 -16719.016581  18065.340315     68.390520                    
PR18 -18276.534213 -17429.743703   3368.435484    164.631307                    
PR19 -19528.337527  -8620.274294 -13975.283964    -21.965712                    
PR20  -8809.689452   6255.457932 -23104.627498   -305.672705                    
PR21   6829.149409  16648.797273 -18071.633590    132.312187                    
PR22  18927.429006  17105.378895  -1805.863470     26.962600                    
PR23  18799.470057   6280.115634  16040.540803    105.380148                    
PR24   8548.124289  -6591.577598  23080.357722   -155.215013                    
EOF                                     
